[{"OBJECT_NAME":"ONEWEB-0403","OBJECT_ID":"2021-132Q","EPOCH":"2026-06-10T05:07:32.834208","MEAN_MOTION":13.18684473,"ECCENTRICITY":0.0002006,"INCLINATION":87.9168,"RA_OF_ASC_NODE":336.8429,"ARG_OF_PERICENTER":90.5307,"MEAN_ANOMALY":269.6055,"EPHEMERIS_TYPE":0,"CLASSIFICATION_TYPE":"U","NORAD_CAT_ID":50483,"ELEMENT_SET_NO":999,"REV_AT_EPOCH":22067,"BSTAR":3.3061e-05,"MEAN_MOTION_DOT":2.6e-07,"MEAN_MOTION_DDOT":0.0},{"OBJECT_NAME":"ONEWEB-0404","OBJECT_ID":"2021-132R","EPOCH":"2026-06-10T03:49:50.495808","MEAN_MOTION":13.11415017,"ECCENTRICITY":0.0002136,"INCLINATION":87.8894,"RA_OF_ASC_NODE":22.466,"ARG_OF_PERICENTER":84.4554,"MEAN_ANOMALY":275.6817,"EPHEMERIS_TYPE":0,"CLASSIFICATION_TYPE":"U","NORAD_CAT_ID":50484,"ELEMENT_SET_NO":999,"REV_AT_EPOCH":21477,"BSTAR":0.00012356000000000002,"MEAN_MOTION_DOT":5.6e-07,"MEAN_MOTION_DDOT":0.0},{"OBJECT_NAME":"ONEWEB-0405","OBJECT_ID":"2021-132S","EPOCH":"2026-06-10T05:26:59.414784","MEAN_MOTION":13.18686074,"ECCENTRICITY":0.0001901,"INCLINATION":87.917,"RA_OF_ASC_NODE":336.8246,"ARG_OF_PERICENTER":105.5185,"MEAN_ANOMALY":254.6157,"EPHEMERIS_TYPE":0,"CLASSIFICATION_TYPE":"U","NORAD_CAT_ID":50485,"ELEMENT_SET_NO":999,"REV_AT_EPOCH":22107,"BSTAR":4.7793e-05,"MEAN_MOTION_DOT":3.2e-07,"MEAN_MOTION_DDOT":0.0},{"OBJECT_NAME":"ONEWEB-0406","OBJECT_ID":"2021-132T","EPOCH":"2026-06-10T05:14:50.133120","MEAN_MOTION":13.1868506,"ECCENTRICITY":0.0002405,"INCLINATION":87.9163,"RA_OF_ASC_NODE":336.8431,"ARG_OF_PERICENTER":89.1892,"MEAN_ANOMALY":270.9515,"EPHEMERIS_TYPE":0,"CLASSIFICATION_TYPE":"U","NORAD_CAT_ID":50486,"ELEMENT_SET_NO":999,"REV_AT_EPOCH":22070,"BSTAR":-8.6849e-06,"MEAN_MOTION_DOT":9e-08,"MEAN_MOTION_DDOT":0.0},{"OBJECT_NAME":"ONEWEB-0407","OBJECT_ID":"2021-132U","EPOCH":"2026-06-10T05:05:07.934496","MEAN_MOTION":13.18684581,"ECCENTRICITY":0.0001637,"INCLINATION":87.9168,"RA_OF_ASC_NODE":336.8365,"ARG_OF_PERICENTER":92.589,"MEAN_ANOMALY":267.5429,"EPHEMERIS_TYPE":0,"CLASSIFICATION_TYPE":"U","NORAD_CAT_ID":50487,"ELEMENT_SET_NO":999,"REV_AT_EPOCH":22064,"BSTAR":0.00011366,"MEAN_MOTION_DOT":5.8e-07,"MEAN_MOTION_DDOT":0.0},{"OBJECT_NAME":"ONEWEB-0409","OBJECT_ID":"2021-132V","EPOCH":"2026-06-10T03:47:23.613216","MEAN_MOTION":13.11415884,"ECCENTRICITY":0.0002085,"INCLINATION":87.8898,"RA_OF_ASC_NODE":22.4541,"ARG_OF_PERICENTER":87.2949,"MEAN_ANOMALY":272.8418,"EPHEMERIS_TYPE":0,"CLASSIFICATION_TYPE":"U","NORAD_CAT_ID":50488,"ELEMENT_SET_NO":999,"REV_AT_EPOCH":21466,"BSTAR":0.00041275000000000003,"MEAN_MOTION_DOT":1.59e-06,"MEAN_MOTION_DDOT":0.0},{"OBJECT_NAME":"ONEWEB-0412","OBJECT_ID":"2021-132W","EPOCH":"2026-06-09T23:20:19.997088","MEAN_MOTION":13.18684738,"ECCENTRICITY":0.000172,"INCLINATION":87.9165,"RA_OF_ASC_NODE":336.8922,"ARG_OF_PERICENTER":82.0603,"MEAN_ANOMALY":278.0725,"EPHEMERIS_TYPE":0,"CLASSIFICATION_TYPE":"U","NORAD_CAT_ID":50489,"ELEMENT_SET_NO":999,"REV_AT_EPOCH":22070,"BSTAR":0.00016248000000000003,"MEAN_MOTION_DOT":7.7e-07,"MEAN_MOTION_DDOT":0.0},{"OBJECT_NAME":"ONEWEB-0413","OBJECT_ID":"2021-132X","EPOCH":"2026-06-10T04:55:24.871872","MEAN_MOTION":13.1868417,"ECCENTRICITY":0.0001566,"INCLINATION":87.9156,"RA_OF_ASC_NODE":336.8453,"ARG_OF_PERICENTER":85.2187,"MEAN_ANOMALY":274.9124,"EPHEMERIS_TYPE":0,"CLASSIFICATION_TYPE":"U","NORAD_CAT_ID":50490,"ELEMENT_SET_NO":999,"REV_AT_EPOCH":22067,"BSTAR":0.0007610200000000001,"MEAN_MOTION_DOT":3.13e-06,"MEAN_MOTION_DDOT":0.0},{"OBJECT_NAME":"ONEWEB-0414","OBJECT_ID":"2021-132Y","EPOCH":"2026-06-10T04:33:33.700032","MEAN_MOTION":13.18685482,"ECCENTRICITY":0.0001882,"INCLINATION":87.9167,"RA_OF_ASC_NODE":336.8295,"ARG_OF_PERICENTER":85.6893,"MEAN_ANOMALY":274.4454,"EPHEMERIS_TYPE":0,"CLASSIFICATION_TYPE":"U","NORAD_CAT_ID":50491,"ELEMENT_SET_NO":999,"REV_AT_EPOCH":22070,"BSTAR":-0.00013108,"MEAN_MOTION_DOT":-3.9e-07,"MEAN_MOTION_DDOT":0.0},{"OBJECT_NAME":"ONEWEB-0417","OBJECT_ID":"2021-132Z","EPOCH":"2026-06-10T04:45:42.007968","MEAN_MOTION":13.18685333,"ECCENTRICITY":0.0002086,"INCLINATION":87.9158,"RA_OF_ASC_NODE":336.848,"ARG_OF_PERICENTER":91.4541,"MEAN_ANOMALY":268.683,"EPHEMERIS_TYPE":0,"CLASSIFICATION_TYPE":"U","NORAD_CAT_ID":50492,"ELEMENT_SET_NO":999,"REV_AT_EPOCH":22068,"BSTAR":-2.3488000000000003e-05,"MEAN_MOTION_DOT":4e-08,"MEAN_MOTION_DDOT":0.0},{"OBJECT_NAME":"ONEWEB-0418","OBJECT_ID":"2021-132AA","EPOCH":"2026-06-10T05:00:05.049792","MEAN_MOTION":13.18684534,"ECCENTRICITY":0.0002142,"INCLINATION":87.9168,"RA_OF_ASC_NODE":336.8453,"ARG_OF_PERICENTER":92.4387,"MEAN_ANOMALY":267.699,"EPHEMERIS_TYPE":0,"CLASSIFICATION_TYPE":"U","NORAD_CAT_ID":50493,"ELEMENT_SET_NO":999,"REV_AT_EPOCH":22074,"BSTAR":-8.0352e-05,"MEAN_MOTION_DOT":-1.9e-07,"MEAN_MOTION_DDOT":0.0},{"OBJECT_NAME":"ONEWEB-0419","OBJECT_ID":"2021-132AB","EPOCH":"2026-06-10T05:26:42.092448","MEAN_MOTION":13.18665231,"ECCENTRICITY":0.0002067,"INCLINATION":87.9168,"RA_OF_ASC_NODE":336.8411,"ARG_OF_PERICENTER":97.5093,"MEAN_ANOMALY":262.6274,"EPHEMERIS_TYPE":0,"CLASSIFICATION_TYPE":"U","NORAD_CAT_ID":50494,"ELEMENT_SET_NO":999,"REV_AT_EPOCH":22066,"BSTAR":0.00011164000000000001,"MEAN_MOTION_DOT":5.7e-07,"MEAN_MOTION_DDOT":0.0},{"OBJECT_NAME":"ONEWEB-0420","OBJECT_ID":"2021-132AC","EPOCH":"2026-06-10T04:35:59.158752","MEAN_MOTION":13.18685698,"ECCENTRICITY":0.0001634,"INCLINATION":87.9158,"RA_OF_ASC_NODE":336.8514,"ARG_OF_PERICENTER":92.6228,"MEAN_ANOMALY":267.5091,"EPHEMERIS_TYPE":0,"CLASSIFICATION_TYPE":"U","NORAD_CAT_ID":50495,"ELEMENT_SET_NO":999,"REV_AT_EPOCH":22065,"BSTAR":0.00015167,"MEAN_MOTION_DOT":7.3e-07,"MEAN_MOTION_DDOT":0.0},{"OBJECT_NAME":"ONEWEB-0421","OBJECT_ID":"2021-132AD","EPOCH":"2026-06-10T04:26:16.096992","MEAN_MOTION":13.18684793,"ECCENTRICITY":0.0001904,"INCLINATION":87.9162,"RA_OF_ASC_NODE":336.8502,"ARG_OF_PERICENTER":79.3425,"MEAN_ANOMALY":280.7922,"EPHEMERIS_TYPE":0,"CLASSIFICATION_TYPE":"U","NORAD_CAT_ID":50496,"ELEMENT_SET_NO":999,"REV_AT_EPOCH":22069,"BSTAR":-5.9173e-05,"MEAN_MOTION_DOT":-1e-07,"MEAN_MOTION_DDOT":0.0},{"OBJECT_NAME":"ONEWEB-0424","OBJECT_ID":"2021-132AE","EPOCH":"2026-06-10T05:19:41.520576","MEAN_MOTION":13.18684815,"ECCENTRICITY":0.0002014,"INCLINATION":87.9165,"RA_OF_ASC_NODE":336.8408,"ARG_OF_PERICENTER":101.6312,"MEAN_ANOMALY":258.5047,"EPHEMERIS_TYPE":0,"CLASSIFICATION_TYPE":"U","NORAD_CAT_ID":50497,"ELEMENT_SET_NO":999,"REV_AT_EPOCH":22072,"BSTAR":-4.924e-05,"MEAN_MOTION_DOT":-6e-08,"MEAN_MOTION_DDOT":0.0},{"OBJECT_NAME":"ONEWEB-0426","OBJECT_ID":"2021-132AF","EPOCH":"2026-06-10T04:20:12.555168","MEAN_MOTION":13.18688606,"ECCENTRICITY":0.0002402,"INCLINATION":87.9166,"RA_OF_ASC_NODE":336.8399,"ARG_OF_PERICENTER":79.2851,"MEAN_ANOMALY":280.8552,"EPHEMERIS_TYPE":0,"CLASSIFICATION_TYPE":"U","NORAD_CAT_ID":50498,"ELEMENT_SET_NO":999,"REV_AT_EPOCH":22066,"BSTAR":1.5657e-05,"MEAN_MOTION_DOT":1.9e-07,"MEAN_MOTION_DDOT":0.0},{"OBJECT_NAME":"ONEWEB-0427","OBJECT_ID":"2021-132AG","EPOCH":"2026-06-10T05:17:15.867456","MEAN_MOTION":13.18684549,"ECCENTRICITY":0.0002075,"INCLINATION":87.9168,"RA_OF_ASC_NODE":336.8208,"ARG_OF_PERICENTER":90.5936,"MEAN_ANOMALY":269.5434,"EPHEMERIS_TYPE":0,"CLASSIFICATION_TYPE":"U","NORAD_CAT_ID":50499,"ELEMENT_SET_NO":999,"REV_AT_EPOCH":22069,"BSTAR":1.2068e-05,"MEAN_MOTION_DOT":1.8e-07,"MEAN_MOTION_DDOT":0.0},{"OBJECT_NAME":"ONEWEB-0429","OBJECT_ID":"2021-132AH","EPOCH":"2026-06-10T04:57:50.569920","MEAN_MOTION":13.18685129,"ECCENTRICITY":0.0001734,"INCLINATION":87.9161,"RA_OF_ASC_NODE":336.8487,"ARG_OF_PERICENTER":91.5228,"MEAN_ANOMALY":268.6103,"EPHEMERIS_TYPE":0,"CLASSIFICATION_TYPE":"U","NORAD_CAT_ID":50500,"ELEMENT_SET_NO":999,"REV_AT_EPOCH":22066,"BSTAR":2.8085000000000003e-06,"MEAN_MOTION_DOT":1.4e-07,"MEAN_MOTION_DDOT":0.0},{"OBJECT_NAME":"ONEWEB-0430","OBJECT_ID":"2021-132AJ","EPOCH":"2026-06-10T04:40:50.603232","MEAN_MOTION":13.18686096,"ECCENTRICITY":0.000172,"INCLINATION":87.916,"RA_OF_ASC_NODE":336.8491,"ARG_OF_PERICENTER":98.5874,"MEAN_ANOMALY":261.5453,"EPHEMERIS_TYPE":0,"CLASSIFICATION_TYPE":"U","NORAD_CAT_ID":50501,"ELEMENT_SET_NO":999,"REV_AT_EPOCH":22070,"BSTAR":3.1218000000000005e-05,"MEAN_MOTION_DOT":2.5e-07,"MEAN_MOTION_DDOT":0.0},{"OBJECT_NAME":"ONEWEB-0432","OBJECT_ID":"2021-132AK","EPOCH":"2026-06-10T08:00:01.999872","MEAN_MOTION":13.1713961,"ECCENTRICITY":0.0002059,"INCLINATION":87.9183,"RA_OF_ASC_NODE":336.7909,"ARG_OF_PERICENTER":109.4782,"MEAN_ANOMALY":19.2584,"EPHEMERIS_TYPE":0,"CLASSIFICATION_TYPE":"U","NORAD_CAT_ID":50502,"ELEMENT_SET_NO":999,"REV_AT_EPOCH":507,"BSTAR":0.11164,"MEAN_MOTION_DOT":0.00043239,"MEAN_MOTION_DDOT":0.0},{"OBJECT_NAME":"ONEWEB-0440","OBJECT_ID":"2021-132AL","EPOCH":"2026-06-10T05:09:58.595328","MEAN_MOTION":13.18684602,"ECCENTRICITY":0.000166,"INCLINATION":87.9167,"RA_OF_ASC_NODE":336.8408,"ARG_OF_PERICENTER":82.6293,"MEAN_ANOMALY":277.5028,"EPHEMERIS_TYPE":0,"CLASSIFICATION_TYPE":"U","NORAD_CAT_ID":50503,"ELEMENT_SET_NO":999,"REV_AT_EPOCH":22065,"BSTAR":8.505600000000001e-05,"MEAN_MOTION_DOT":4.6e-07,"MEAN_MOTION_DDOT":0.0},{"OBJECT_NAME":"ONEWEB-0450","OBJECT_ID":"2021-132AM","EPOCH":"2026-06-09T23:32:41.329824","MEAN_MOTION":13.18685437,"ECCENTRICITY":0.0001656,"INCLINATION":87.9156,"RA_OF_ASC_NODE":336.8933,"ARG_OF_PERICENTER":93.3933,"MEAN_ANOMALY":266.7389,"EPHEMERIS_TYPE":0,"CLASSIFICATION_TYPE":"U","NORAD_CAT_ID":50504,"ELEMENT_SET_NO":999,"REV_AT_EPOCH":22065,"BSTAR":0.00012859000000000001,"MEAN_MOTION_DOT":6.4e-07,"MEAN_MOTION_DDOT":0.0},{"OBJECT_NAME":"ONEWEB-0410","OBJECT_ID":"2022-012A","EPOCH":"2026-06-10T01:54:09.512064","MEAN_MOTION":13.17647907,"ECCENTRICITY":0.0003161,"INCLINATION":87.9146,"RA_OF_ASC_NODE":7.2706,"ARG_OF_PERICENTER":80.7151,"MEAN_ANOMALY":279.4338,"EPHEMERIS_TYPE":0,"CLASSIFICATION_TYPE":"U","NORAD_CAT_ID":51622,"ELEMENT_SET_NO":999,"REV_AT_EPOCH":21276,"BSTAR":-1.5588e-05,"MEAN_MOTION_DOT":7e-08,"MEAN_MOTION_DDOT":0.0}]